QIANFAN-33              
1 61566U 24185Q   25339.95436122  .00000611  00000+0  43256-3 0  9998
2 61566  88.9802  79.5633 0006425   5.2548 354.8695 13.96543479 68213
QIANFAN-34              
1 61567U 24185R   25339.94759959  .00000731  00000+0  46832-3 0  9990
2 61567  88.9780  79.1371 0005321   9.7998 350.3285 14.02297435 68409
QIANFAN-35              
1 61568U 24185S   25339.90017646  .00001527  00000+0  61071-3 0  9993
2 61568  88.9805  77.6814 0004812 321.7139  38.3713 14.27949183 69200
QIANFAN-36              
1 61569U 24185T   25339.95086105  .00000186  00000+0  25080-3 0  9995
2 61569  88.9786  81.7508 0007506  72.0628 288.1343 13.55584114 67006
QIANFAN-37              
1 62238U 24232B   25339.95637038  .00000181  00000+0  26249-3 0  9992
2 62238  89.0027  42.0139 0002662 108.2997 251.8444 13.50976288 98251
QIANFAN-38              
1 62239U 24232C   25339.90698538  .00000198  00000+0  28842-3 0  9999
2 62239  89.0034  41.9341 0014015 207.4765 152.5647 13.50979329 98300
QIANFAN-39              
1 62240U 24232D   25339.96509850  .00000808  00000+0  33600-3 0  9991
2 62240  89.0023  38.0841 0018489 100.9385 259.3889 14.25382094100427
QIANFAN-40              
1 62241U 24232E   25339.93989791  .00000194  00000+0  28169-3 0  9997
2 62241  89.0061  41.5135 0012792 215.0961 144.9348 13.50978983 98671
